PROPCUBE 1 (FLORA)      
1 40976U 15058N   26158.86134575  .00003117  00000+0  29617-3 0  9995
2 40976  64.7759 324.1389 0130343  64.5742 296.8792 14.89178132114876
SINOD-D 3               
1 40977U 15058P   26159.13731123  .00003545  00000+0  30324-3 0  9991
2 40977  64.7736 304.0780 0118853  61.7349 299.5699 14.93957578113406
APSTAR-9                
1 40982U 15059A   26159.30056774 -.00000250  00000+0  00000+0 0  9994
2 40982   0.0156 358.4051 0002270 182.7335 325.7708  1.00270215 39038
TURKSAT 4B              
1 40984U 15060A   26159.13969936  .00000131  00000+0  00000+0 0  9999
2 40984   0.0175   8.6048 0002496  56.1054 292.1353  1.00268581 39006
NAVSTAR 75 (USA 265)    
1 41019U 15062A   26158.30562493 -.00000066  00000+0  00000+0 0  9994
2 41019  56.9527  31.1920 0111617 231.1506 127.9002  2.00567051 77632
ZHONGXING-2C            
1 41021U 15063A   26159.07905464 -.00000308  00000+0  00000+0 0  9991
2 41021   0.2491  90.3185 0007655  95.7307 202.2996  1.00268569 38880
YAOGAN-28               
1 41026U 15064A   26159.28175493  .00006389  00000+0  24130-3 0  9999
2 41026  97.3064 297.7265 0009828 215.6751 144.3833 15.27303262589320
GSAT-15                 
1 41028U 15065A   26159.07706130 -.00000242  00000+0  00000+0 0  9996
2 41028   0.0491 113.5759 0004003 325.2533 298.9001  1.00271202 38704
BADR-7 (ARABSAT-6B)     
1 41029U 15065B   26159.20625983  .00000160  00000+0  00000+0 0  9996
2 41029   0.0377 236.9789 0003322 320.8814 158.9846  1.00270460 38670
COSMOS 2510             
1 41032U 15066A   26152.01128853 -.00001527  00000+0  00000+0 0  9996
2 41032  63.4962 348.3931 7203997 274.6574  13.7000  2.00948921 77140
LAOSAT 1                
1 41034U 15067A   26158.72749269 -.00000328  00000+0  00000+0 0  9991
2 41034   0.0381 195.2428 0002087 205.4762 245.7893  1.00266970 38763
TELSTAR 12V             
1 41036U 15068A   26159.26947329 -.00000103  00000+0  00000+0 0  9992
2 41036   0.0183  56.7632 0002373  18.3238 263.5968  1.00271287 38533
YAOGAN-29               
1 41038U 15069A   26159.27200456  .00000005  00000+0  72907-5 0  9990
2 41038  98.0031 187.8908 0002942  67.5193 292.6332 14.83076999569304
ELEKTRO-L 2             
1 41105U 15074A   26159.05543303 -.00000103  00000+0  00000+0 0  9997
2 41105   6.6705  70.6343 0001134 284.8984 266.3917  1.00272046 38414
COSMOS 2513             
1 41121U 15075A   26158.36140079 -.00000124  00000+0  00000+0 0  9995
2 41121   0.0781  99.8531 0003687 329.6914  36.5844  1.00272440 38450
VELOX-CI                
1 41166U 15077A   26158.64501243  .00020895  00000+0  34602-3 0  9996
2 41166  14.9810 158.3499 0004461  89.8844 270.1993 15.49484431581242
KENT RIDGE 1            
1 41167U 15077B   26159.12626532  .00004648  00000+0  15976-3 0  9991
2 41167  14.9808 333.3719 0008250 110.5670 249.5537 15.23078072579714
DAMPE                   
1 41173U 15078A   26159.27829044  .00001616  00000+0  56839-4 0  9994
2 41173  97.4563 164.7021 0013673 104.2937 255.9823 15.30763252583182
GSAT0209 (GALILEO 12)   
1 41174U 15079A   26156.30703759  .00000019  00000+0  00000+0 0  9991
2 41174  55.8207 101.5878 0005440 339.2511  20.6937  1.70473904 64577
GSAT0208 (GALILEO 11)   
1 41175U 15079B   26158.28712667  .00000025  00000+0  00000+0 0  9996
2 41175  55.8199 101.5304 0004721 346.6269  13.3344  1.70473630 65023
ORBCOMM FM114           
1 41179U 15081A   26158.93824464  .00000551  00000+0  15277-3 0  9994
2 41179  47.0058  45.7315 0001941 168.5940 191.4991 14.58848089556400
ORBCOMM FM110           
1 41182U 15081D   26158.37887223  .00000842  00000+0  21433-3 0  9992
2 41182  47.0029  47.8183 0002921  20.9160 339.1845 14.58864970556194
ORBCOMM FM118           
1 41183U 15081E   26156.97489096  .00003194  00000+0  71149-3 0  9995
2 41183  47.0105  54.7867 0003166 344.4390  15.6398 14.58872006556094
ORBCOMM FM112           
1 41184U 15081F   26158.69180097  .00000819  00000+0  20932-3 0  9991
2 41184  47.0001 315.1475 0003123 175.6095 184.4819 14.58890878557561
ORBCOMM FM113           
1 41185U 15081G   26159.14754797  .00000505  00000+0  14299-3 0  9998
2 41185  47.0018 313.3644 0001738 188.1874 171.8983 14.58849184557614
ORBCOMM FM108           
1 41187U 15081J   26158.90455547  .00000664  00000+0  17664-3 0  9999
2 41187  47.0042 226.0860 0002450 183.9962 176.0905 14.58862128558723
ORBCOMM FM117           
1 41188U 15081K   26158.87004529  .00000590  00000+0  16110-3 0  9999
2 41188  47.0005 224.8856 0002980 184.7848 175.3010 14.58857943558766
ORBCOMM FM116           
1 41189U 15081L   26158.71361229  .00000857  00000+0  21737-3 0  9993
2 41189  47.0035 315.4145 0001121   3.5235 356.5659 14.58869594557555
EXPRESS-AMU1            
1 41191U 15082A   26159.27961334  .00000171  00000+0  00000+0 0  9997
2 41191   0.0176 332.1129 0002876 106.8624 314.4543  1.00269982 38173
